CCSDS_OMM_VERS = 2.0
CREATION_DATE  = 
ORIGINATOR     = 

OBJECT_NAME    = SL-14 R/B
OBJECT_ID      = 1991-042B
CENTER_NAME    = EARTH
REF_FRAME      = TEME
TIME_SYSTEM    = UTC
MEAN_ELEMENT_THEORY = SGP/SGP4

EPOCH          = 2026-01-25T03:15:08.421696
MEAN_MOTION    = 14.81786892
ECCENTRICITY   = .0017807
INCLINATION    = 82.4914
RA_OF_ASC_NODE = 261.0338
ARG_OF_PERICENTER = 28.7909
MEAN_ANOMALY   = 331.4283

EPHEMERIS_TYPE = 0
CLASSIFICATION_TYPE = U
NORAD_CAT_ID   = 21423
ELEMENT_SET_NO = 999
REV_AT_EPOCH   = 84662
BSTAR          = .8502E-4
MEAN_MOTION_DOT = .696E-5
MEAN_MOTION_DDOT = 0

CCSDS_OMM_VERS = 2.0
CREATION_DATE  = 
ORIGINATOR     = 

OBJECT_NAME    = ERS-1
OBJECT_ID      = 1991-050A
CENTER_NAME    = EARTH
REF_FRAME      = TEME
TIME_SYSTEM    = UTC
MEAN_ELEMENT_THEORY = SGP/SGP4

EPOCH          = 2026-01-25T01:03:19.526400
MEAN_MOTION    = 14.39408962
ECCENTRICITY   = .003146
INCLINATION    = 98.7897
RA_OF_ASC_NODE = 42.1816
ARG_OF_PERICENTER = 333.5595
MEAN_ANOMALY   = 26.3985

EPHEMERIS_TYPE = 0
CLASSIFICATION_TYPE = U
NORAD_CAT_ID   = 21574
ELEMENT_SET_NO = 999
REV_AT_EPOCH   = 80945
BSTAR          = .22994E-3
MEAN_MOTION_DOT = .673E-5
MEAN_MOTION_DDOT = 0

CCSDS_OMM_VERS = 2.0
CREATION_DATE  = 
ORIGINATOR     = 

OBJECT_NAME    = ARIANE 40 R/B
OBJECT_ID      = 1991-050F
CENTER_NAME    = EARTH
REF_FRAME      = TEME
TIME_SYSTEM    = UTC
MEAN_ELEMENT_THEORY = SGP/SGP4

EPOCH          = 2026-01-25T03:06:13.050144
MEAN_MOTION    = 14.42857667
ECCENTRICITY   = .0002934
INCLINATION    = 98.2102
RA_OF_ASC_NODE = 78.9815
ARG_OF_PERICENTER = 183.6213
MEAN_ANOMALY   = 176.4957

EPHEMERIS_TYPE = 0
CLASSIFICATION_TYPE = U
NORAD_CAT_ID   = 21610
ELEMENT_SET_NO = 999
REV_AT_EPOCH   = 81271
BSTAR          = .21385E-3
MEAN_MOTION_DOT = .672E-5
MEAN_MOTION_DDOT = 0

CCSDS_OMM_VERS = 2.0
CREATION_DATE  = 
ORIGINATOR     = 

OBJECT_NAME    = INTERCOSMOS 25
OBJECT_ID      = 1991-086A
CENTER_NAME    = EARTH
REF_FRAME      = TEME
TIME_SYSTEM    = UTC
MEAN_ELEMENT_THEORY = SGP/SGP4

EPOCH          = 2026-01-25T03:30:42.291648
MEAN_MOTION    = 12.11878276
ECCENTRICITY   = .1486181
INCLINATION    = 82.6091
RA_OF_ASC_NODE = 336.3220
ARG_OF_PERICENTER = 210.7654
MEAN_ANOMALY   = 139.7495

EPHEMERIS_TYPE = 0
CLASSIFICATION_TYPE = U
NORAD_CAT_ID   = 21819
ELEMENT_SET_NO = 999
REV_AT_EPOCH   = 49141
BSTAR          = .37891E-3
MEAN_MOTION_DOT = .192E-4
MEAN_MOTION_DDOT = 0

CCSDS_OMM_VERS = 2.0
CREATION_DATE  = 
ORIGINATOR     = 

OBJECT_NAME    = SL-8 R/B
OBJECT_ID      = 1992-008B
CENTER_NAME    = EARTH
REF_FRAME      = TEME
TIME_SYSTEM    = UTC
MEAN_ELEMENT_THEORY = SGP/SGP4

EPOCH          = 2026-01-24T19:00:26.329824
MEAN_MOTION    = 13.75968111
ECCENTRICITY   = .00333186
INCLINATION    = 82.9287
RA_OF_ASC_NODE = 300.4302
ARG_OF_PERICENTER = 257.1181
MEAN_ANOMALY   = 120.6987

EPHEMERIS_TYPE = 0
CLASSIFICATION_TYPE = U
NORAD_CAT_ID   = 21876
ELEMENT_SET_NO = 999
REV_AT_EPOCH   = 70338
BSTAR          = .10149151E-3
MEAN_MOTION_DOT = .114E-5
MEAN_MOTION_DDOT = 0

CCSDS_OMM_VERS = 2.0
CREATION_DATE  = 
ORIGINATOR     = 

OBJECT_NAME    = SL-8 R/B
OBJECT_ID      = 1992-020B
CENTER_NAME    = EARTH
REF_FRAME      = TEME
TIME_SYSTEM    = UTC
MEAN_ELEMENT_THEORY = SGP/SGP4

EPOCH          = 2026-01-24T11:09:51.820704
MEAN_MOTION    = 13.75541198
ECCENTRICITY   = .00300725
INCLINATION    = 82.9305
RA_OF_ASC_NODE = 186.5892
ARG_OF_PERICENTER = 62.5873
MEAN_ANOMALY   = 351.2212

EPHEMERIS_TYPE = 0
CLASSIFICATION_TYPE = U
NORAD_CAT_ID   = 21938
ELEMENT_SET_NO = 999
REV_AT_EPOCH   = 69505
BSTAR          = .19245665E-3
MEAN_MOTION_DOT = .201E-5
MEAN_MOTION_DDOT = 0

CCSDS_OMM_VERS = 2.0
CREATION_DATE  = 
ORIGINATOR     = 

OBJECT_NAME    = USA 81
OBJECT_ID      = 1992-023A
CENTER_NAME    = EARTH
REF_FRAME      = TEME
TIME_SYSTEM    = UTC
MEAN_ELEMENT_THEORY = SGP/SGP4

EPOCH          = 2026-01-25T01:36:56.937024
MEAN_MOTION    = 14.32349027
ECCENTRICITY   = .0002158
INCLINATION    = 85.0112
RA_OF_ASC_NODE = 156.5913
ARG_OF_PERICENTER = 114.1723
MEAN_ANOMALY   = 245.9696

EPHEMERIS_TYPE = 0
CLASSIFICATION_TYPE = U
NORAD_CAT_ID   = 21949
ELEMENT_SET_NO = 999
REV_AT_EPOCH   = 8854
BSTAR          = .14531E-3
MEAN_MOTION_DOT = .412E-5
MEAN_MOTION_DDOT = 0

CCSDS_OMM_VERS = 2.0
CREATION_DATE  = 
ORIGINATOR     = 

OBJECT_NAME    = COSMOS 2219
OBJECT_ID      = 1992-076A
CENTER_NAME    = EARTH
REF_FRAME      = TEME
TIME_SYSTEM    = UTC
MEAN_ELEMENT_THEORY = SGP/SGP4

EPOCH          = 2026-01-24T12:31:08.066496
MEAN_MOTION    = 14.14081059
ECCENTRICITY   = .00208204
INCLINATION    = 71.0613
RA_OF_ASC_NODE = 110.4049
ARG_OF_PERICENTER = 268.3437
MEAN_ANOMALY   = 91.5300

EPHEMERIS_TYPE = 0
CLASSIFICATION_TYPE = U
NORAD_CAT_ID   = 22219
ELEMENT_SET_NO = 999
REV_AT_EPOCH   = 71213
BSTAR          = -.43164937E-4
MEAN_MOTION_DOT = -.13E-5
MEAN_MOTION_DDOT = 0

CCSDS_OMM_VERS = 2.0
CREATION_DATE  = 
ORIGINATOR     = 

OBJECT_NAME    = SL-16 R/B
OBJECT_ID      = 1992-076B
CENTER_NAME    = EARTH
REF_FRAME      = TEME
TIME_SYSTEM    = UTC
MEAN_ELEMENT_THEORY = SGP/SGP4

EPOCH          = 2026-01-25T03:30:07.270272
MEAN_MOTION    = 14.16850431
ECCENTRICITY   = .0012368
INCLINATION    = 70.9997
RA_OF_ASC_NODE = 280.0993
ARG_OF_PERICENTER = 171.8916
MEAN_ANOMALY   = 297.6725

EPHEMERIS_TYPE = 0
CLASSIFICATION_TYPE = U
NORAD_CAT_ID   = 22220
ELEMENT_SET_NO = 999
REV_AT_EPOCH   = 71566
BSTAR          = -.32924E-4
MEAN_MOTION_DOT = -.114E-5
MEAN_MOTION_DDOT = 0

CCSDS_OMM_VERS = 2.0
CREATION_DATE  = 
ORIGINATOR     = 

OBJECT_NAME    = COSMOS 2221
OBJECT_ID      = 1992-080A
CENTER_NAME    = EARTH
REF_FRAME      = TEME
TIME_SYSTEM    = UTC
MEAN_ELEMENT_THEORY = SGP/SGP4

EPOCH          = 2026-01-24T13:29:35.528064
MEAN_MOTION    = 14.95992217
ECCENTRICITY   = .001423
INCLINATION    = 82.5065
RA_OF_ASC_NODE = 321.3352
ARG_OF_PERICENTER = 348.3171
MEAN_ANOMALY   = 11.7718

EPHEMERIS_TYPE = 0
CLASSIFICATION_TYPE = U
NORAD_CAT_ID   = 22236
ELEMENT_SET_NO = 999
REV_AT_EPOCH   = 77419
BSTAR          = .35685016E-3
MEAN_MOTION_DOT = .4033E-4
MEAN_MOTION_DDOT = 0

CCSDS_OMM_VERS = 2.0
CREATION_DATE  = 
ORIGINATOR     = 

OBJECT_NAME    = SL-16 R/B
OBJECT_ID      = 1992-093B
CENTER_NAME    = EARTH
REF_FRAME      = TEME
TIME_SYSTEM    = UTC
MEAN_ELEMENT_THEORY = SGP/SGP4

EPOCH          = 2026-01-24T15:23:23.498016
MEAN_MOTION    = 14.15443223
ECCENTRICITY   = .00044319
INCLINATION    = 71.0222
RA_OF_ASC_NODE = 96.7390
ARG_OF_PERICENTER = 342.0908
MEAN_ANOMALY   = 18.0058

EPHEMERIS_TYPE = 0
CLASSIFICATION_TYPE = U
NORAD_CAT_ID   = 22285
ELEMENT_SET_NO = 999
REV_AT_EPOCH   = 70692
BSTAR          = .73729313E-4
MEAN_MOTION_DOT = .96E-6
MEAN_MOTION_DDOT = 0

CCSDS_OMM_VERS = 2.0
CREATION_DATE  = 
ORIGINATOR     = 

OBJECT_NAME    = COSMOS 2228
OBJECT_ID      = 1992-094A
CENTER_NAME    = EARTH
REF_FRAME      = TEME
TIME_SYSTEM    = UTC
MEAN_ELEMENT_THEORY = SGP/SGP4

EPOCH          = 2026-01-25T03:24:39.447072
MEAN_MOTION    = 14.96978172
ECCENTRICITY   = .0019648
INCLINATION    = 82.5176
RA_OF_ASC_NODE = 279.0060
ARG_OF_PERICENTER = 88.2334
MEAN_ANOMALY   = 272.1138

EPHEMERIS_TYPE = 0
CLASSIFICATION_TYPE = U
NORAD_CAT_ID   = 22286
ELEMENT_SET_NO = 999
REV_AT_EPOCH   = 76954
BSTAR          = .28217E-3
MEAN_MOTION_DOT = .3282E-4
MEAN_MOTION_DDOT = 0

